{"type": "FeatureCollection", "features": [ {"type": "Feature", "properties": {"norad_id": 66923, "name": "HULIANWANG DIGUI 14J", "group": "last-30-days", "lat": 22.094819203934552, "lon": 159.9704580752534, "alt_km": 869.973022860835, "timestamp": "2025-12-07T03:52:31.205610+00:00", "meta": {"OBJECT_NAME": "HULIANWANG DIGUI 14J", "OBJECT_ID": "2025-285J", "EPOCH": "2025-12-06T15:47:59.955648", "MEAN_MOTION": 14.06557559, "ECCENTRICITY": 0.0005524, "INCLINATION": 50.007, "RA_OF_ASC_NODE": 142.1061, "ARG_OF_PERICENTER": 275.6797, "MEAN_ANOMALY": 84.3479, "EPHEMERIS_TYPE": 0, "CLASSIFICATION_TYPE": "U", "NORAD_CAT_ID": 66923, "ELEMENT_SET_NO": 999, "REV_AT_EPOCH": 5, "BSTAR": -0.0014301, "MEAN_MOTION_DOT": -2.534e-05, "MEAN_MOTION_DDOT": 0}, "tle": {"line1": "1 66923U 25285J   25340.65833282 -.00002534  00000+0 -14301-2 0  9995", "line2": "2 66923  50.0070 142.1061 0005524 275.6797  84.3479 14.06557559    51"}}, "geometry": {"type": "Point", "coordinates": [159.9704580752534, 22.094819203934552]}}, {"type": "Feature", "properties": {"norad_id": 66924, "name": "CZ-8A R/B", "group": "last-30-days", "lat": 49.084711466186185, "lon": -115.69826107999927, "alt_km": 700.1662878427524, "timestamp": "2025-12-07T03:52:31.205624+00:00", "meta": {"OBJECT_NAME": "CZ-8A R/B", "OBJECT_ID": "2025-285K", "EPOCH": "2025-12-06T12:19:51.036960", "MEAN_MOTION": 14.30448863, "ECCENTRICITY": 0.0118852, "INCLINATION": 50.0062, "RA_OF_ASC_NODE": 142.6566, "ARG_OF_PERICENTER": 84.4915, "MEAN_ANOMALY": 276.9544, "EPHEMERIS_TYPE": 0, "CLASSIFICATION_TYPE": "U", "NORAD_CAT_ID": 66924, "ELEMENT_SET_NO": 999, "REV_AT_EPOCH": 3, "BSTAR": 2.573e-05, "MEAN_MOTION_DOT": -9.5e-07, "MEAN_MOTION_DDOT": 0}, "tle": {"line1": "1 66924U 25285K   25340.51378515 -.00000095  00000+0  25730-4 0  9993", "line2": "2 66924  50.0062 142.6566 0118852  84.4915 276.9544 14.30448863    39"}}, "geometry": {"type": "Point", "coordinates": [-115.69826107999927, 49.084711466186185]}}]}